{"type": "FeatureCollection", "features": [{"type": "Feature", "properties": {"OBJECTID": 1150, "NAMOBJ": "", "REMARK": "Saluran Irigasi / Drainase", "FCODE": "60206"}, "geometry": {"type": "LineString", "coordinates": [[113.654598, -8.223692], [113.653809, -8.218492], [113.639988, -8.217887], [113.632452, -8.211676]]}}, {"type": "Feature", "properties": {"OBJECTID": 1154, "NAMOBJ": "", "REMARK": "Saluran Irigasi / Drainase", "FCODE": "60206"}, "geometry": {"type": "LineString", "coordinates": [[113.40053, -8.205173], [113.407819, -8.192779], [113.42522, -8.197365], [113.436838, -8.19588], [113.442202, -8.197369], [113.445548, -8.196218]]}}, {"type": "Feature", "properties": {"OBJECTID": 1157, "NAMOBJ": "", "REMARK": "Saluran Irigasi / Drainase", "FCODE": "60206"}, "geometry": {"type": "LineString", "coordinates": [[113.43096, -8.221463], [113.437127, -8.227299], [113.435309, -8.23415], [113.432728, -8.236894], [113.430569, -8.235898], [113.431786, -8.23057], [113.390492, -8.221924]]}}, {"type": "Feature", "properties": {"OBJECTID": 1172, "NAMOBJ": "", "REMARK": "Saluran Irigasi / Drainase", "FCODE": "60206"}, "geometry": {"type": "LineString", "coordinates": [[113.474182, -8.175656], [113.463526, -8.182322], [113.459149, -8.193172]]}}, {"type": "Feature", "properties": {"OBJECTID": 1177, "NAMOBJ": "", "REMARK": "Saluran Irigasi / Drainase", "FCODE": "60206"}, "geometry": {"type": "LineString", "coordinates": [[113.809685, -8.364134], [113.808498, -8.365634], [113.803491, -8.365477], [113.796889, -8.369974], [113.791287, -8.370434]]}}, {"type": "Feature", "properties": {"OBJECTID": 1182, "NAMOBJ": "", "REMARK": "Saluran Irigasi / Drainase", "FCODE": "60206"}, "geometry": {"type": "LineString", "coordinates": [[113.408474, -8.38537], [113.407967, -8.384533], [113.410341, -8.38368], [113.410083, -8.381409]]}}, {"type": "Feature", "properties": {"OBJECTID": 1199, "NAMOBJ": "", "REMARK": "Saluran Irigasi / Drainase", "FCODE": "60206"}, "geometry": {"type": "LineString", "coordinates": [[113.388032, -8.223962], [113.388456, -8.224773]]}}, {"type": "Feature", "properties": {"OBJECTID": 1210, "NAMOBJ": "", "REMARK": "Saluran Irigasi / Drainase", "FCODE": "60206"}, "geometry": {"type": "LineString", "coordinates": [[113.36483, -8.189117], [113.35989, -8.192366], [113.355177, -8.199063], [113.353912, -8.203896], [113.35036, -8.205771], [113.343211, -8.214493], [113.352312, -8.219387]]}}, {"type": "Feature", "properties": {"OBJECTID": 1219, "NAMOBJ": "", "REMARK": "Saluran Irigasi / Drainase", "FCODE": "60206"}, "geometry": {"type": "LineString", "coordinates": [[113.56041, -8.303421], [113.559892, -8.303654]]}}, {"type": "Feature", "properties": {"OBJECTID": 1221, "NAMOBJ": "", "REMARK": "Saluran Irigasi / Drainase", "FCODE": "60206"}, "geometry": {"type": "LineString", "coordinates": [[113.409222, -8.140919], [113.401949, -8.138323]]}}, {"type": "Feature", "properties": {"OBJECTID": 1227, "NAMOBJ": "", "REMARK": "Saluran Irigasi / Drainase", "FCODE": "60206"}, "geometry": {"type": "LineString", "coordinates": [[113.347736, -8.208942], [113.355084, -8.214253]]}}, {"type": "Feature", "properties": {"OBJECTID": 1230, "NAMOBJ": "", "REMARK": "Saluran Irigasi / Drainase", "FCODE": "60206"}, "geometry": {"type": "LineString", "coordinates": [[113.416924, -8.15255], [113.426943, -8.147086], [113.428142, -8.149272]]}}, {"type": "Feature", "properties": {"OBJECTID": 1236, "NAMOBJ": "", "REMARK": "Saluran Irigasi / Drainase", "FCODE": "60206"}, "geometry": {"type": "LineString", "coordinates": [[113.445363, -8.197021], [113.444573, -8.199278], [113.442398, -8.198952], [113.438024, -8.201404], [113.431101, -8.200882], [113.427683, -8.204292]]}}, {"type": "Feature", "properties": {"OBJECTID": 1239, "NAMOBJ": "", "REMARK": "Saluran Irigasi / Drainase", "FCODE": "60206"}, "geometry": {"type": "LineString", "coordinates": [[113.394534, -8.199452], [113.395405, -8.199909], [113.390849, -8.207591], [113.378778, -8.20925]]}}, {"type": "Feature", "properties": {"OBJECTID": 1241, "NAMOBJ": "", "REMARK": "Saluran Irigasi / Drainase", "FCODE": "60206"}, "geometry": {"type": "LineString", "coordinates": [[113.634167, -8.320089], [113.630865, -8.319041]]}}, {"type": "Feature", "properties": {"OBJECTID": 1247, "NAMOBJ": "", "REMARK": "Saluran Irigasi / Drainase", "FCODE": "60206"}, "geometry": {"type": "LineString", "coordinates": [[113.444223, -8.32114], [113.451256, -8.321055]]}}, {"type": "Feature", "properties": {"OBJECTID": 1254, "NAMOBJ": "", "REMARK": "Saluran Irigasi / Drainase", "FCODE": "60206"}, "geometry": {"type": "LineString", "coordinates": [[113.506263, -8.216837], [113.502099, -8.229065]]}}, {"type": "Feature", "properties": {"OBJECTID": 1257, "NAMOBJ": "", "REMARK": "Saluran Irigasi / Drainase", "FCODE": "60206"}, "geometry": {"type": "LineString", "coordinates": [[113.332554, -8.167778], [113.336804, -8.169783], [113.339093, -8.173143]]}}, {"type": "Feature", "properties": {"OBJECTID": 1266, "NAMOBJ": "", "REMARK": "Saluran Irigasi / Drainase", "FCODE": "60206"}, "geometry": {"type": "LineString", "coordinates": [[113.722348, -8.204678], [113.720593, -8.207749]]}}, {"type": "Feature", "properties": {"OBJECTID": 1270, "NAMOBJ": "", "REMARK": "Saluran Irigasi / Drainase", "FCODE": "60206"}, "geometry": {"type": "LineString", "coordinates": [[113.396398, -8.212637], [113.412557, -8.213611]]}}, {"type": "Feature", "properties": {"OBJECTID": 1273, "NAMOBJ": "", "REMARK": "Saluran Irigasi / Drainase", "FCODE": "60206"}, "geometry": {"type": "LineString", "coordinates": [[113.325969, -8.175478], [113.324444, -8.179515], [113.317202, -8.178679]]}}, {"type": "Feature", "properties": {"OBJECTID": 1290, "NAMOBJ": "", "REMARK": "Saluran Irigasi / Drainase", "FCODE": "60206"}, "geometry": {"type": "LineString", "coordinates": [[113.587579, -8.35455], [113.59713, -8.360428]]}}, {"type": "Feature", "properties": {"OBJECTID": 1294, "NAMOBJ": "SALURAN DOMAS", "REMARK": "Saluran Irigasi / Drainase", "FCODE": "60206"}, "geometry": {"type": "LineString", "coordinates": [[113.299123, -8.254004], [113.303117, -8.232947], [113.30715, -8.224554], [113.286859, -8.179365], [113.248535, -8.153702], [113.247631, -8.154697], [113.244286, -8.15283], [113.242371, -8.158435]]}}, {"type": "Feature", "properties": {"OBJECTID": 1307, "NAMOBJ": "", "REMARK": "Saluran Irigasi / Drainase", "FCODE": "60206"}, "geometry": {"type": "LineString", "coordinates": [[113.445602, -8.19656], [113.447909, -8.209256], [113.446547, -8.213753], [113.438058, -8.224896], [113.434871, -8.236821], [113.435213, -8.243362]]}}, {"type": "Feature", "properties": {"OBJECTID": 1308, "NAMOBJ": "", "REMARK": "Saluran Irigasi / Drainase", "FCODE": "60206"}, "geometry": {"type": "LineString", "coordinates": [[113.456727, -8.203525], [113.455159, -8.205457]]}}, {"type": "Feature", "properties": {"OBJECTID": 1310, "NAMOBJ": "", "REMARK": "Saluran Irigasi / Drainase", "FCODE": "60206"}, "geometry": {"type": "LineString", "coordinates": [[113.389971, -8.219723], [113.379169, -8.217831]]}}, {"type": "Feature", "properties": {"OBJECTID": 1312, "NAMOBJ": "", "REMARK": "Saluran Irigasi / Drainase", "FCODE": "60206"}, "geometry": {"type": "LineString", "coordinates": [[113.595323, -8.382437], [113.588798, -8.38655], [113.565937, -8.386223]]}}, {"type": "Feature", "properties": {"OBJECTID": 1320, "NAMOBJ": "", "REMARK": "Saluran Irigasi / Drainase", "FCODE": "60206"}, "geometry": {"type": "LineString", "coordinates": [[113.596481, -8.375255], [113.56135, -8.378167], [113.550989, -8.382067]]}}, {"type": "Feature", "properties": {"OBJECTID": 1332, "NAMOBJ": "", "REMARK": "Saluran Irigasi / Drainase", "FCODE": "60206"}, "geometry": {"type": "LineString", "coordinates": [[113.332812, -8.167378], [113.328583, -8.171874], [113.326193, -8.172035], [113.325969, -8.175478]]}}, {"type": "Feature", "properties": {"OBJECTID": 1335, "NAMOBJ": "", "REMARK": "Saluran Irigasi / Drainase", "FCODE": "60206"}, "geometry": {"type": "LineString", "coordinates": [[113.716403, -8.186843], [113.719105, -8.185872], [113.719662, -8.188896], [113.713545, -8.189825]]}}, {"type": "Feature", "properties": {"OBJECTID": 1341, "NAMOBJ": "", "REMARK": "Saluran Irigasi / Drainase", "FCODE": "60206"}, "geometry": {"type": "LineString", "coordinates": [[113.662098, -8.244642], [113.65614, -8.237041], [113.650099, -8.236644], [113.642596, -8.239666], [113.637729, -8.243857], [113.62733, -8.244185], [113.599118, -8.252925], [113.57611, -8.247256]]}}, {"type": "Feature", "properties": {"OBJECTID": 1348, "NAMOBJ": "", "REMARK": "Saluran Irigasi / Drainase", "FCODE": "60206"}, "geometry": {"type": "LineString", "coordinates": [[113.596467, -8.375495], [113.58476, -8.376588], [113.577976, -8.384474], [113.578396, -8.386129]]}}, {"type": "Feature", "properties": {"OBJECTID": 1370, "NAMOBJ": "", "REMARK": "Saluran Irigasi / Drainase", "FCODE": "60206"}, "geometry": {"type": "LineString", "coordinates": [[113.662205, -8.24486], [113.651037, -8.245907], [113.649388, -8.253643], [113.634081, -8.264575], [113.62676, -8.281097], [113.616919, -8.285632], [113.609201, -8.293269]]}}, {"type": "Feature", "properties": {"OBJECTID": 1371, "NAMOBJ": "", "REMARK": "Saluran Irigasi / Drainase", "FCODE": "60206"}, "geometry": {"type": "LineString", "coordinates": [[113.430811, -8.191292], [113.423609, -8.196863]]}}, {"type": "Feature", "properties": {"OBJECTID": 1373, "NAMOBJ": "", "REMARK": "Saluran Irigasi / Drainase", "FCODE": "60206"}, "geometry": {"type": "LineString", "coordinates": [[113.342085, -8.134532], [113.3386, -8.145551], [113.344522, -8.149075], [113.34239, -8.155996]]}}, {"type": "Feature", "properties": {"OBJECTID": 1377, "NAMOBJ": "", "REMARK": "Saluran Irigasi / Drainase", "FCODE": "60206"}, "geometry": {"type": "LineString", "coordinates": [[113.459174, -8.167704], [113.455682, -8.177467], [113.449619, -8.180445]]}}, {"type": "Feature", "properties": {"OBJECTID": 1383, "NAMOBJ": "", "REMARK": "Saluran Irigasi / Drainase", "FCODE": "60206"}, "geometry": {"type": "LineString", "coordinates": [[113.270671, -8.275214], [113.270193, -8.277056], [113.30725, -8.287067], [113.310027, -8.288581], [113.311702, -8.292306]]}}, {"type": "Feature", "properties": {"OBJECTID": 1404, "NAMOBJ": "", "REMARK": "Saluran Irigasi / Drainase", "FCODE": "60206"}, "geometry": {"type": "LineString", "coordinates": [[113.368201, -8.159541], [113.361229, -8.161302]]}}, {"type": "Feature", "properties": {"OBJECTID": 1412, "NAMOBJ": "", "REMARK": "Saluran Irigasi / Drainase", "FCODE": "60206"}, "geometry": {"type": "LineString", "coordinates": [[113.526466, -8.375559], [113.533152, -8.376046], [113.53338, -8.379517], [113.542148, -8.38018], [113.542729, -8.376989], [113.540269, -8.376679], [113.539911, -8.375]]}}, {"type": "Feature", "properties": {"OBJECTID": 1415, "NAMOBJ": "SALURAN PODOMASAN", "REMARK": "Saluran Irigasi / Drainase", "FCODE": "60206"}, "geometry": {"type": "LineString", "coordinates": [[113.380414, -8.233556], [113.364255, -8.227739], [113.354811, -8.229748], [113.350205, -8.228715], [113.338275, -8.233924], [113.327504, -8.25074], [113.32829, -8.266079], [113.334466, -8.270947]]}}, {"type": "Feature", "properties": {"OBJECTID": 1435, "NAMOBJ": "", "REMARK": "Saluran Irigasi / Drainase", "FCODE": "60206"}, "geometry": {"type": "LineString", "coordinates": [[113.458059, -8.223942], [113.462287, -8.213773], [113.45841, -8.212886], [113.458059, -8.223942]]}}, {"type": "Feature", "properties": {"OBJECTID": 1450, "NAMOBJ": "", "REMARK": "Saluran Irigasi / Drainase", "FCODE": "60206"}, "geometry": {"type": "LineString", "coordinates": [[113.353465, -8.173601], [113.347043, -8.177832], [113.344367, -8.183465]]}}, {"type": "Feature", "properties": {"OBJECTID": 1452, "NAMOBJ": "", "REMARK": "Saluran Irigasi / Drainase", "FCODE": "60206"}, "geometry": {"type": "LineString", "coordinates": [[113.514215, -8.356155], [113.512238, -8.357158], [113.507732, -8.366739], [113.505004, -8.365798]]}}, {"type": "Feature", "properties": {"OBJECTID": 1457, "NAMOBJ": "", "REMARK": "Saluran Irigasi / Drainase", "FCODE": "60206"}, "geometry": {"type": "LineString", "coordinates": [[113.392924, -8.383909], [113.394846, -8.381854]]}}, {"type": "Feature", "properties": {"OBJECTID": 1458, "NAMOBJ": "", "REMARK": "Saluran Irigasi / Drainase", "FCODE": "60206"}, "geometry": {"type": "LineString", "coordinates": [[113.379881, -8.188188], [113.384368, -8.189589]]}}, {"type": "Feature", "properties": {"OBJECTID": 1469, "NAMOBJ": "", "REMARK": "Saluran Irigasi / Drainase", "FCODE": "60206"}, "geometry": {"type": "LineString", "coordinates": [[113.429518, -8.17868], [113.424567, -8.180243], [113.419871, -8.179884], [113.416376, -8.182777], [113.414894, -8.181192], [113.413477, -8.185134], [113.408, -8.190998]]}}, {"type": "Feature", "properties": {"OBJECTID": 1498, "NAMOBJ": "", "REMARK": "Saluran Irigasi / Drainase", "FCODE": "60206"}, "geometry": {"type": "LineString", "coordinates": [[113.358207, -8.130148], [113.356083, -8.129668], [113.355727, -8.127681]]}}, {"type": "Feature", "properties": {"OBJECTID": 1504, "NAMOBJ": "", "REMARK": "Saluran Irigasi / Drainase", "FCODE": "60206"}, "geometry": {"type": "LineString", "coordinates": [[113.351358, -8.163548], [113.352413, -8.163604], [113.345876, -8.175218], [113.340675, -8.181029]]}}, {"type": "Feature", "properties": {"OBJECTID": 1512, "NAMOBJ": "", "REMARK": "Saluran Irigasi / Drainase", "FCODE": "60206"}, "geometry": {"type": "LineString", "coordinates": [[113.396116, -8.386026], [113.395851, -8.386639]]}}, {"type": "Feature", "properties": {"OBJECTID": 1515, "NAMOBJ": "", "REMARK": "Saluran Irigasi / Drainase", "FCODE": "60206"}, "geometry": {"type": "LineString", "coordinates": [[113.31984, -8.308427], [113.325203, -8.307119], [113.32747, -8.304004], [113.337933, -8.307419]]}}, {"type": "Feature", "properties": {"OBJECTID": 1518, "NAMOBJ": "", "REMARK": "Saluran Irigasi / Drainase", "FCODE": "60206"}, "geometry": {"type": "LineString", "coordinates": [[113.365706, -8.243777], [113.36481, -8.269766]]}}, {"type": "Feature", "properties": {"OBJECTID": 1521, "NAMOBJ": "", "REMARK": "Saluran Irigasi / Drainase", "FCODE": "60206"}, "geometry": {"type": "LineString", "coordinates": [[113.314424, -8.146121], [113.320729, -8.150274]]}}, {"type": "Feature", "properties": {"OBJECTID": 1525, "NAMOBJ": "", "REMARK": "Saluran Irigasi / Drainase", "FCODE": "60206"}, "geometry": {"type": "LineString", "coordinates": [[113.476868, -8.359347], [113.476611, -8.367459], [113.474632, -8.374914]]}}, {"type": "Feature", "properties": {"OBJECTID": 1528, "NAMOBJ": "", "REMARK": "Saluran Irigasi / Drainase", "FCODE": "60206"}, "geometry": {"type": "LineString", "coordinates": [[113.904387, -7.901062], [113.906505, -7.908198], [113.895871, -7.916916]]}}, {"type": "Feature", "properties": {"OBJECTID": 1531, "NAMOBJ": "", "REMARK": "Saluran Irigasi / Drainase", "FCODE": "60206"}, "geometry": {"type": "LineString", "coordinates": [[113.447909, -8.209256], [113.449017, -8.210599], [113.471991, -8.215816], [113.473895, -8.218063], [113.473961, -8.219304], [113.469293, -8.219898], [113.466203, -8.223434], [113.461215, -8.233622], [113.455648, -8.236361], [113.454489, -8.250914]]}}, {"type": "Feature", "properties": {"OBJECTID": 1536, "NAMOBJ": "", "REMARK": "Saluran Irigasi / Drainase", "FCODE": "60206"}, "geometry": {"type": "LineString", "coordinates": [[113.565378, -8.377596], [113.56898, -8.380877], [113.577818, -8.384491]]}}, {"type": "Feature", "properties": {"OBJECTID": 1540, "NAMOBJ": "", "REMARK": "Saluran Irigasi / Drainase", "FCODE": "60206"}, "geometry": {"type": "LineString", "coordinates": [[113.333081, -8.241953], [113.342346, -8.246496]]}}, {"type": "Feature", "properties": {"OBJECTID": 1542, "NAMOBJ": "", "REMARK": "Saluran Irigasi / Drainase", "FCODE": "60206"}, "geometry": {"type": "LineString", "coordinates": [[113.330985, -8.211802], [113.331495, -8.208311], [113.338969, -8.201827], [113.346376, -8.204466], [113.349067, -8.202319], [113.352792, -8.196572], [113.353052, -8.193765], [113.364833, -8.180955], [113.363021, -8.173226]]}}, {"type": "Feature", "properties": {"OBJECTID": 1549, "NAMOBJ": "", "REMARK": "Saluran Irigasi / Drainase", "FCODE": "60206"}, "geometry": {"type": "LineString", "coordinates": [[113.474816, -8.203965], [113.470748, -8.208866], [113.464472, -8.20715], [113.462471, -8.213602]]}}, {"type": "Feature", "properties": {"OBJECTID": 1555, "NAMOBJ": "", "REMARK": "Saluran Irigasi / Drainase", "FCODE": "60206"}, "geometry": {"type": "LineString", "coordinates": [[113.682506, -8.397266], [113.673002, -8.402838]]}}, {"type": "Feature", "properties": {"OBJECTID": 1561, "NAMOBJ": "", "REMARK": "Saluran Irigasi / Drainase", "FCODE": "60206"}, "geometry": {"type": "LineString", "coordinates": [[113.573691, -8.383312], [113.578179, -8.382969]]}}, {"type": "Feature", "properties": {"OBJECTID": 1574, "NAMOBJ": "", "REMARK": "Saluran Irigasi / Drainase", "FCODE": "60206"}, "geometry": {"type": "LineString", "coordinates": [[113.696033, -8.262505], [113.7007, -8.261752], [113.70416, -8.257752], [113.70696, -8.256812], [113.708004, -8.253363], [113.713262, -8.249273], [113.721791, -8.237647]]}}, {"type": "Feature", "properties": {"OBJECTID": 1578, "NAMOBJ": "", "REMARK": "Saluran Irigasi / Drainase", "FCODE": "60206"}, "geometry": {"type": "LineString", "coordinates": [[113.633598, -8.243988], [113.629654, -8.240536], [113.62521, -8.240948], [113.617685, -8.238213]]}}, {"type": "Feature", "properties": {"OBJECTID": 1583, "NAMOBJ": "", "REMARK": "Saluran Irigasi / Drainase", "FCODE": "60206"}, "geometry": {"type": "LineString", "coordinates": [[113.383673, -8.360856], [113.374257, -8.349723], [113.363336, -8.340479], [113.361171, -8.340199], [113.358562, -8.33685], [113.359308, -8.324324], [113.355525, -8.31512]]}}, {"type": "Feature", "properties": {"OBJECTID": 1585, "NAMOBJ": "", "REMARK": "Saluran Irigasi / Drainase", "FCODE": "60206"}, "geometry": {"type": "LineString", "coordinates": [[113.313758, -8.160824], [113.325343, -8.16326], [113.331743, -8.166555]]}}, {"type": "Feature", "properties": {"OBJECTID": 1587, "NAMOBJ": "", "REMARK": "Saluran Irigasi / Drainase", "FCODE": "60206"}, "geometry": {"type": "LineString", "coordinates": [[113.463346, -8.304209], [113.44549, -8.302635], [113.443918, -8.30981], [113.427816, -8.311976]]}}, {"type": "Feature", "properties": {"OBJECTID": 1599, "NAMOBJ": "SALURAN IRIGASI BONDOYUDO", "REMARK": "Saluran Irigasi / Drainase", "FCODE": "60206"}, "geometry": {"type": "LineString", "coordinates": [[113.367643, -8.121506], [113.370273, -8.124242], [113.375893, -8.125798], [113.382054, -8.129592], [113.395814, -8.126363], [113.400285, -8.127685], [113.424462, -8.139122], [113.428806, -8.148956]]}}, {"type": "Feature", "properties": {"OBJECTID": 1613, "NAMOBJ": "", "REMARK": "Saluran Irigasi / Drainase", "FCODE": "60206"}, "geometry": {"type": "LineString", "coordinates": [[113.491306, -8.19468], [113.487117, -8.199527]]}}, {"type": "Feature", "properties": {"OBJECTID": 1627, "NAMOBJ": "", "REMARK": "Saluran Irigasi / Drainase", "FCODE": "60206"}, "geometry": {"type": "LineString", "coordinates": [[113.32572, -8.187799], [113.324444, -8.179515]]}}, {"type": "Feature", "properties": {"OBJECTID": 1645, "NAMOBJ": "", "REMARK": "Saluran Irigasi / Drainase", "FCODE": "60206"}, "geometry": {"type": "LineString", "coordinates": [[113.578396, -8.386129], [113.58255, -8.40058], [113.583726, -8.401198]]}}, {"type": "Feature", "properties": {"OBJECTID": 1647, "NAMOBJ": "", "REMARK": "Saluran Irigasi / Drainase", "FCODE": "60206"}, "geometry": {"type": "LineString", "coordinates": [[113.410341, -8.38368], [113.408474, -8.38537]]}}, {"type": "Feature", "properties": {"OBJECTID": 1661, "NAMOBJ": "", "REMARK": "Saluran Irigasi / Drainase", "FCODE": "60206"}, "geometry": {"type": "LineString", "coordinates": [[113.351303, -8.277916], [113.349017, -8.272408], [113.354759, -8.262774], [113.354086, -8.254753], [113.358475, -8.240642]]}}, {"type": "Feature", "properties": {"OBJECTID": 1669, "NAMOBJ": "", "REMARK": "Saluran Irigasi / Drainase", "FCODE": "60206"}, "geometry": {"type": "LineString", "coordinates": [[113.622525, -8.32187], [113.625479, -8.317896], [113.628064, -8.309538], [113.634416, -8.305766]]}}, {"type": "Feature", "properties": {"OBJECTID": 1698, "NAMOBJ": "", "REMARK": "Saluran Irigasi / Drainase", "FCODE": "60206"}, "geometry": {"type": "LineString", "coordinates": [[113.588871, -8.386508], [113.586716, -8.388807], [113.583488, -8.398976], [113.584022, -8.402407]]}}, {"type": "Feature", "properties": {"OBJECTID": 1700, "NAMOBJ": "", "REMARK": "Saluran Irigasi / Drainase", "FCODE": "60206"}, "geometry": {"type": "LineString", "coordinates": [[113.631407, -8.29888], [113.625531, -8.305298]]}}, {"type": "Feature", "properties": {"OBJECTID": 1701, "NAMOBJ": "IRIGASI SONGON", "REMARK": "Saluran Irigasi / Drainase", "FCODE": "60206"}, "geometry": {"type": "LineString", "coordinates": [[113.375461, -8.254407], [113.378676, -8.246218], [113.380414, -8.233556], [113.38678, -8.226234], [113.387742, -8.221998], [113.395255, -8.212295], [113.409061, -8.187732], [113.412445, -8.184626], [113.416788, -8.170722], [113.422711, -8.164901], [113.428859, -8.149042]]}}, {"type": "Feature", "properties": {"OBJECTID": 1710, "NAMOBJ": "", "REMARK": "Saluran Irigasi / Drainase", "FCODE": "60206"}, "geometry": {"type": "LineString", "coordinates": [[113.407482, -8.190513], [113.407373, -8.190471]]}}, {"type": "Feature", "properties": {"OBJECTID": 1716, "NAMOBJ": "", "REMARK": "Saluran Irigasi / Drainase", "FCODE": "60206"}, "geometry": {"type": "LineString", "coordinates": [[113.398234, -8.206757], [113.39298, -8.204024]]}}, {"type": "Feature", "properties": {"OBJECTID": 1721, "NAMOBJ": "", "REMARK": "Saluran Irigasi / Drainase", "FCODE": "60206"}, "geometry": {"type": "LineString", "coordinates": [[113.488794, -8.190361], [113.48061, -8.200339], [113.467421, -8.195866]]}}, {"type": "Feature", "properties": {"OBJECTID": 1723, "NAMOBJ": "", "REMARK": "Saluran Irigasi / Drainase", "FCODE": "60206"}, "geometry": {"type": "LineString", "coordinates": [[113.409859, -8.379518], [113.412252, -8.379064]]}}, {"type": "Feature", "properties": {"OBJECTID": 1730, "NAMOBJ": "", "REMARK": "Saluran Irigasi / Drainase", "FCODE": "60206"}, "geometry": {"type": "LineString", "coordinates": [[113.609201, -8.293269], [113.607307, -8.298824], [113.59838, -8.301376]]}}, {"type": "Feature", "properties": {"OBJECTID": 1731, "NAMOBJ": "", "REMARK": "Saluran Irigasi / Drainase", "FCODE": "60206"}, "geometry": {"type": "LineString", "coordinates": [[113.666319, -8.306374], [113.654546, -8.315387], [113.65143, -8.320945]]}}, {"type": "Feature", "properties": {"OBJECTID": 1734, "NAMOBJ": "", "REMARK": "Saluran Irigasi / Drainase", "FCODE": "60206"}, "geometry": {"type": "LineString", "coordinates": [[113.322763, -8.30793], [113.327355, -8.312256]]}}, {"type": "Feature", "properties": {"OBJECTID": 1736, "NAMOBJ": "", "REMARK": "Saluran Irigasi / Drainase", "FCODE": "60206"}, "geometry": {"type": "LineString", "coordinates": [[113.498991, -8.167002], [113.490997, -8.180708], [113.488876, -8.19015]]}}, {"type": "Feature", "properties": {"OBJECTID": 1751, "NAMOBJ": "", "REMARK": "Saluran Irigasi / Drainase", "FCODE": "60206"}, "geometry": {"type": "LineString", "coordinates": [[113.539635, -8.222109], [113.543073, -8.227819], [113.552315, -8.234227], [113.563968, -8.239792], [113.56742, -8.244021], [113.566823, -8.245501]]}}, {"type": "Feature", "properties": {"OBJECTID": 1754, "NAMOBJ": "", "REMARK": "Saluran Irigasi / Drainase", "FCODE": "60206"}, "geometry": {"type": "LineString", "coordinates": [[113.584761, -8.386379], [113.585477, -8.383247], [113.586804, -8.383362], [113.587595, -8.386491]]}}, {"type": "Feature", "properties": {"OBJECTID": 1774, "NAMOBJ": "", "REMARK": "Saluran Irigasi / Drainase", "FCODE": "60206"}, "geometry": {"type": "LineString", "coordinates": [[113.633136, -8.243401], [113.636915, -8.241608]]}}, {"type": "Feature", "properties": {"OBJECTID": 1775, "NAMOBJ": "", "REMARK": "Saluran Irigasi / Drainase", "FCODE": "60206"}, "geometry": {"type": "LineString", "coordinates": [[113.499464, -8.202716], [113.498768, -8.204838], [113.496438, -8.204549]]}}, {"type": "Feature", "properties": {"OBJECTID": 1776, "NAMOBJ": "SALURAN IRIGASI BONDOYUDO", "REMARK": "Saluran Irigasi / Drainase", "FCODE": "60206"}, "geometry": {"type": "LineString", "coordinates": [[113.36082, -8.119165], [113.357553, -8.120774], [113.352765, -8.11997], [113.347444, -8.126441], [113.341803, -8.128546], [113.326462, -8.128027], [113.324933, -8.126656], [113.324139, -8.117738], [113.300072, -8.112229], [113.27613, -8.110096], [113.270841, -8.10337]]}}, {"type": "Feature", "properties": {"OBJECTID": 1779, "NAMOBJ": "", "REMARK": "Saluran Irigasi / Drainase", "FCODE": "60206"}, "geometry": {"type": "LineString", "coordinates": [[113.587269, -8.355469], [113.586822, -8.359288], [113.594058, -8.367546], [113.592304, -8.376097]]}}, {"type": "Feature", "properties": {"OBJECTID": 1780, "NAMOBJ": "", "REMARK": "Saluran Irigasi / Drainase", "FCODE": "60206"}, "geometry": {"type": "LineString", "coordinates": [[113.663091, -8.321811], [113.665913, -8.317061], [113.667923, -8.306774], [113.673968, -8.301189], [113.674032, -8.29756], [113.678235, -8.288339], [113.676044, -8.282], [113.678079, -8.275054], [113.683813, -8.269225]]}}, {"type": "Feature", "properties": {"OBJECTID": 1788, "NAMOBJ": "", "REMARK": "Saluran Irigasi / Drainase", "FCODE": "60206"}, "geometry": {"type": "LineString", "coordinates": [[113.630865, -8.319041], [113.627092, -8.318382], [113.622525, -8.32187]]}}, {"type": "Feature", "properties": {"OBJECTID": 1817, "NAMOBJ": "", "REMARK": "Saluran Irigasi / Drainase", "FCODE": "60206"}, "geometry": {"type": "LineString", "coordinates": [[113.400247, -8.38712], [113.398773, -8.386316], [113.400247, -8.38712]]}}, {"type": "Feature", "properties": {"OBJECTID": 1826, "NAMOBJ": "", "REMARK": "Saluran Irigasi / Drainase", "FCODE": "60206"}, "geometry": {"type": "LineString", "coordinates": [[113.596641, -8.375424], [113.59644, -8.381259], [113.598223, -8.382434]]}}, {"type": "Feature", "properties": {"OBJECTID": 1838, "NAMOBJ": "", "REMARK": "Saluran Irigasi / Drainase", "FCODE": "60206"}, "geometry": {"type": "LineString", "coordinates": [[113.392243, -8.203327], [113.384964, -8.207]]}}, {"type": "Feature", "properties": {"OBJECTID": 1844, "NAMOBJ": "", "REMARK": "Saluran Irigasi / Drainase", "FCODE": "60206"}, "geometry": {"type": "LineString", "coordinates": [[113.584183, -8.230307], [113.581999, -8.230134], [113.581439, -8.233048]]}}, {"type": "Feature", "properties": {"OBJECTID": 1848, "NAMOBJ": "", "REMARK": "Saluran Irigasi / Drainase", "FCODE": "60206"}, "geometry": {"type": "LineString", "coordinates": [[113.392649, -8.306276], [113.385294, -8.316167]]}}, {"type": "Feature", "properties": {"OBJECTID": 1855, "NAMOBJ": "", "REMARK": "Saluran Irigasi / Drainase", "FCODE": "60206"}, "geometry": {"type": "LineString", "coordinates": [[113.367198, -8.162757], [113.366116, -8.161684], [113.353465, -8.173601], [113.353052, -8.193765]]}}, {"type": "Feature", "properties": {"OBJECTID": 1856, "NAMOBJ": "", "REMARK": "Saluran Irigasi / Drainase", "FCODE": "60206"}, "geometry": {"type": "LineString", "coordinates": [[113.490367, -8.202695], [113.488677, -8.202574], [113.487276, -8.204529]]}}, {"type": "Feature", "properties": {"OBJECTID": 1872, "NAMOBJ": "", "REMARK": "Saluran Irigasi / Drainase", "FCODE": "60206"}, "geometry": {"type": "LineString", "coordinates": [[113.683813, -8.269225], [113.691389, -8.262466], [113.694207, -8.263348]]}}, {"type": "Feature", "properties": {"OBJECTID": 1874, "NAMOBJ": "", "REMARK": "Saluran Irigasi / Drainase", "FCODE": "60206"}, "geometry": {"type": "LineString", "coordinates": [[113.406719, -8.268695], [113.39143, -8.254148], [113.379253, -8.248504], [113.374982, -8.26349], [113.378651, -8.265402], [113.377181, -8.270912], [113.378057, -8.272463], [113.386826, -8.280321], [113.404715, -8.283488]]}}, {"type": "Feature", "properties": {"OBJECTID": 1905, "NAMOBJ": "", "REMARK": "Saluran Irigasi / Drainase", "FCODE": "60206"}, "geometry": {"type": "LineString", "coordinates": [[113.463542, -8.245372], [113.477144, -8.231246], [113.481094, -8.223847], [113.48881, -8.215991], [113.49288, -8.213174], [113.498685, -8.214328]]}}, {"type": "Feature", "properties": {"OBJECTID": 1918, "NAMOBJ": "SALURAN JANGGUK", "REMARK": "Saluran Irigasi / Drainase", "FCODE": "60206"}, "geometry": {"type": "LineString", "coordinates": [[113.856142, -7.981908], [113.851985, -7.956705], [113.844975, -7.95025], [113.842117, -7.949665], [113.840385, -7.945382], [113.841506, -7.932899], [113.840421, -7.921797], [113.841972, -7.914731]]}}, {"type": "Feature", "properties": {"OBJECTID": 1929, "NAMOBJ": "", "REMARK": "Saluran Irigasi / Drainase", "FCODE": "60206"}, "geometry": {"type": "LineString", "coordinates": [[113.466074, -8.223601], [113.460131, -8.22971]]}}, {"type": "Feature", "properties": {"OBJECTID": 1934, "NAMOBJ": "", "REMARK": "Saluran Irigasi / Drainase", "FCODE": "60206"}, "geometry": {"type": "LineString", "coordinates": [[113.289979, -8.111791], [113.289957, -8.116273], [113.293119, -8.120656], [113.29374, -8.13384], [113.295327, -8.134269], [113.295301, -8.139193], [113.303742, -8.147284]]}}, {"type": "Feature", "properties": {"OBJECTID": 1935, "NAMOBJ": "", "REMARK": "Saluran Irigasi / Drainase", "FCODE": "60206"}, "geometry": {"type": "LineString", "coordinates": [[113.389582, -8.222078], [113.380596, -8.233627]]}}, {"type": "Feature", "properties": {"OBJECTID": 1949, "NAMOBJ": "", "REMARK": "Saluran Irigasi / Drainase", "FCODE": "60206"}, "geometry": {"type": "LineString", "coordinates": [[113.673002, -8.402838], [113.662954, -8.410597], [113.660192, -8.418556]]}}, {"type": "Feature", "properties": {"OBJECTID": 1957, "NAMOBJ": "", "REMARK": "Saluran Irigasi / Drainase", "FCODE": "60206"}, "geometry": {"type": "LineString", "coordinates": [[113.473961, -8.219304], [113.473989, -8.220021]]}}, {"type": "Feature", "properties": {"OBJECTID": 1969, "NAMOBJ": "", "REMARK": "Saluran Irigasi / Drainase", "FCODE": "60206"}, "geometry": {"type": "LineString", "coordinates": [[113.42471, -8.144238], [113.41735, -8.151293]]}}, {"type": "Feature", "properties": {"OBJECTID": 1970, "NAMOBJ": "", "REMARK": "Saluran Irigasi / Drainase", "FCODE": "60206"}, "geometry": {"type": "LineString", "coordinates": [[113.548595, -8.385493], [113.549429, -8.389022], [113.548202, -8.391802], [113.550617, -8.392965]]}}, {"type": "Feature", "properties": {"OBJECTID": 1974, "NAMOBJ": "", "REMARK": "Saluran Irigasi / Drainase", "FCODE": "60206"}, "geometry": {"type": "LineString", "coordinates": [[113.338606, -8.121089], [113.340496, -8.121442], [113.340781, -8.123916], [113.339107, -8.128083]]}}, {"type": "Feature", "properties": {"OBJECTID": 1975, "NAMOBJ": "", "REMARK": "Saluran Irigasi / Drainase", "FCODE": "60206"}, "geometry": {"type": "LineString", "coordinates": [[113.478035, -8.211318], [113.485537, -8.209939]]}}, {"type": "Feature", "properties": {"OBJECTID": 1976, "NAMOBJ": "", "REMARK": "Saluran Irigasi / Drainase", "FCODE": "60206"}, "geometry": {"type": "LineString", "coordinates": [[113.390267, -8.222393], [113.389582, -8.222078]]}}, {"type": "Feature", "properties": {"OBJECTID": 1980, "NAMOBJ": "", "REMARK": "Saluran Irigasi / Drainase", "FCODE": "60206"}, "geometry": {"type": "LineString", "coordinates": [[113.71242, -8.263192], [113.708755, -8.264607], [113.703303, -8.262846], [113.70198, -8.267439], [113.695228, -8.277203]]}}, {"type": "Feature", "properties": {"OBJECTID": 2012, "NAMOBJ": "", "REMARK": "Saluran Irigasi / Drainase", "FCODE": "60206"}, "geometry": {"type": "LineString", "coordinates": [[113.465514, -8.202341], [113.467421, -8.195866], [113.453591, -8.191237], [113.450402, -8.19532], [113.440914, -8.197045], [113.436754, -8.195676], [113.425251, -8.197191], [113.407397, -8.1923]]}}, {"type": "Feature", "properties": {"OBJECTID": 4, "NAMOBJ": "", "REMARK": "Saluran Irigasi / Drainase", "FCODE": "60206"}, "geometry": {"type": "LineString", "coordinates": [[113.544442, -8.262922], [113.536119, -8.259458], [113.534461, -8.255568], [113.529836, -8.253055], [113.524255, -8.254877], [113.520083, -8.252908], [113.510442, -8.254065]]}}, {"type": "Feature", "properties": {"OBJECTID": 12, "NAMOBJ": "", "REMARK": "Saluran Irigasi / Drainase", "FCODE": "60206"}, "geometry": {"type": "LineString", "coordinates": [[113.503723, -8.204428], [113.50388, -8.200083]]}}, {"type": "Feature", "properties": {"OBJECTID": 19, "NAMOBJ": "KALI PLADINGAN", "REMARK": "Saluran Irigasi / Drainase", "FCODE": "60206"}, "geometry": {"type": "LineString", "coordinates": [[113.405222, -8.175575], [113.406712, -8.178091], [113.406249, -8.182791], [113.41073, -8.185553], [113.407373, -8.190471], [113.397946, -8.186932], [113.37797, -8.191058], [113.369572, -8.188245], [113.36483, -8.189117], [113.363136, -8.192646], [113.363796, -8.19799], [113.358171, -8.219673], [113.352758, -8.226431], [113.350335, -8.227681], [113.329675, -8.222422], [113.327219, -8.225805], [113.323232, -8.227663], [113.319339, -8.231825], [113.316705, -8.24001], [113.321319, -8.255754], [113.32015, -8.260947]]}}, {"type": "Feature", "properties": {"OBJECTID": 24, "NAMOBJ": "", "REMARK": "Saluran Irigasi / Drainase", "FCODE": "60206"}, "geometry": {"type": "LineString", "coordinates": [[113.689226, -8.279354], [113.694346, -8.274617], [113.694958, -8.269909]]}}, {"type": "Feature", "properties": {"OBJECTID": 27, "NAMOBJ": "", "REMARK": "Saluran Irigasi / Drainase", "FCODE": "60206"}, "geometry": {"type": "LineString", "coordinates": [[113.574299, -8.34744], [113.569271, -8.362941], [113.556776, -8.373385], [113.545535, -8.389493]]}}, {"type": "Feature", "properties": {"OBJECTID": 32, "NAMOBJ": "", "REMARK": "Saluran Irigasi / Drainase", "FCODE": "60206"}, "geometry": {"type": "LineString", "coordinates": [[113.396571, -8.191672], [113.392652, -8.198787], [113.388806, -8.199133], [113.38456, -8.201938]]}}, {"type": "Feature", "properties": {"OBJECTID": 39, "NAMOBJ": "", "REMARK": "Saluran Irigasi / Drainase", "FCODE": "60206"}, "geometry": {"type": "LineString", "coordinates": [[113.53385, -8.277387], [113.536778, -8.280395], [113.534695, -8.283561], [113.535266, -8.288484], [113.531529, -8.306337]]}}, {"type": "Feature", "properties": {"OBJECTID": 42, "NAMOBJ": "", "REMARK": "Saluran Irigasi / Drainase", "FCODE": "60206"}, "geometry": {"type": "LineString", "coordinates": [[113.580636, -8.381458], [113.586135, -8.38175]]}}, {"type": "Feature", "properties": {"OBJECTID": 44, "NAMOBJ": "", "REMARK": "Saluran Irigasi / Drainase", "FCODE": "60206"}, "geometry": {"type": "LineString", "coordinates": [[113.633978, -8.222994], [113.646456, -8.224828], [113.651374, -8.222427]]}}, {"type": "Feature", "properties": {"OBJECTID": 57, "NAMOBJ": "", "REMARK": "Saluran Irigasi / Drainase", "FCODE": "60206"}, "geometry": {"type": "LineString", "coordinates": [[113.444657, -8.309852], [113.421318, -8.315094]]}}, {"type": "Feature", "properties": {"OBJECTID": 67, "NAMOBJ": "", "REMARK": "Saluran Irigasi / Drainase", "FCODE": "60206"}, "geometry": {"type": "LineString", "coordinates": [[113.388456, -8.224773], [113.389202, -8.224601]]}}, {"type": "Feature", "properties": {"OBJECTID": 69, "NAMOBJ": "", "REMARK": "Saluran Irigasi / Drainase", "FCODE": "60206"}, "geometry": {"type": "LineString", "coordinates": [[113.669799, -8.214224], [113.6573, -8.21087], [113.644186, -8.209837], [113.642522, -8.208486]]}}, {"type": "Feature", "properties": {"OBJECTID": 73, "NAMOBJ": "", "REMARK": "Saluran Irigasi / Drainase", "FCODE": "60206"}, "geometry": {"type": "LineString", "coordinates": [[113.309004, -8.123888], [113.295846, -8.123353], [113.295634, -8.11368]]}}, {"type": "Feature", "properties": {"OBJECTID": 80, "NAMOBJ": "", "REMARK": "Saluran Irigasi / Drainase", "FCODE": "60206"}, "geometry": {"type": "LineString", "coordinates": [[113.580542, -8.386189], [113.580754, -8.385094], [113.585026, -8.385279]]}}, {"type": "Feature", "properties": {"OBJECTID": 84, "NAMOBJ": "", "REMARK": "Saluran Irigasi / Drainase", "FCODE": "60206"}, "geometry": {"type": "LineString", "coordinates": [[113.432728, -8.236894], [113.431054, -8.240755], [113.431082, -8.246584]]}}, {"type": "Feature", "properties": {"OBJECTID": 88, "NAMOBJ": "", "REMARK": "Saluran Irigasi / Drainase", "FCODE": "60206"}, "geometry": {"type": "LineString", "coordinates": [[113.343858, -8.203817], [113.34399, -8.198978]]}}, {"type": "Feature", "properties": {"OBJECTID": 89, "NAMOBJ": "", "REMARK": "Saluran Irigasi / Drainase", "FCODE": "60206"}, "geometry": {"type": "LineString", "coordinates": [[113.384199, -8.190019], [113.38221, -8.198828], [113.377783, -8.200312]]}}, {"type": "Feature", "properties": {"OBJECTID": 94, "NAMOBJ": "", "REMARK": "Saluran Irigasi / Drainase", "FCODE": "60206"}, "geometry": {"type": "LineString", "coordinates": [[113.663461, -8.282704], [113.656695, -8.28419], [113.654279, -8.286023]]}}, {"type": "Feature", "properties": {"OBJECTID": 107, "NAMOBJ": "", "REMARK": "Saluran Irigasi / Drainase", "FCODE": "60206"}, "geometry": {"type": "LineString", "coordinates": [[113.687053, -8.300576], [113.692668, -8.295304], [113.700663, -8.292527], [113.705442, -8.285293], [113.706721, -8.28515]]}}, {"type": "Feature", "properties": {"OBJECTID": 123, "NAMOBJ": "", "REMARK": "Saluran Irigasi / Drainase", "FCODE": "60206"}, "geometry": {"type": "LineString", "coordinates": [[113.706167, -8.201812], [113.711416, -8.202552], [113.713634, -8.199064], [113.708948, -8.199519]]}}, {"type": "Feature", "properties": {"OBJECTID": 124, "NAMOBJ": "", "REMARK": "Saluran Irigasi / Drainase", "FCODE": "60206"}, "geometry": {"type": "LineString", "coordinates": [[113.423544, -8.190487], [113.417507, -8.184699], [113.417803, -8.183416]]}}, {"type": "Feature", "properties": {"OBJECTID": 125, "NAMOBJ": "", "REMARK": "Saluran Irigasi / Drainase", "FCODE": "60206"}, "geometry": {"type": "LineString", "coordinates": [[113.393476, -8.216609], [113.412557, -8.213611], [113.416706, -8.208046]]}}, {"type": "Feature", "properties": {"OBJECTID": 134, "NAMOBJ": "", "REMARK": "Saluran Irigasi / Drainase", "FCODE": "60206"}, "geometry": {"type": "LineString", "coordinates": [[113.482814, -8.188583], [113.476691, -8.190818], [113.474566, -8.195419], [113.47077, -8.194391]]}}, {"type": "Feature", "properties": {"OBJECTID": 166, "NAMOBJ": "", "REMARK": "Saluran Irigasi / Drainase", "FCODE": "60206"}, "geometry": {"type": "LineString", "coordinates": [[113.498569, -8.214609], [113.530693, -8.221946], [113.53652, -8.221088], [113.539635, -8.222109]]}}, {"type": "Feature", "properties": {"OBJECTID": 170, "NAMOBJ": "", "REMARK": "Saluran Irigasi / Drainase", "FCODE": "60206"}, "geometry": {"type": "LineString", "coordinates": [[113.473989, -8.220021], [113.474299, -8.227401], [113.477703, -8.23028]]}}, {"type": "Feature", "properties": {"OBJECTID": 180, "NAMOBJ": "", "REMARK": "Saluran Irigasi / Drainase", "FCODE": "60206"}, "geometry": {"type": "LineString", "coordinates": [[113.501973, -8.32504], [113.513092, -8.298017], [113.507745, -8.289474], [113.495785, -8.284599], [113.482863, -8.284587], [113.47797, -8.291878]]}}, {"type": "Feature", "properties": {"OBJECTID": 183, "NAMOBJ": "", "REMARK": "Saluran Irigasi / Drainase", "FCODE": "60206"}, "geometry": {"type": "LineString", "coordinates": [[113.504786, -8.216422], [113.506752, -8.205958]]}}, {"type": "Feature", "properties": {"OBJECTID": 194, "NAMOBJ": "", "REMARK": "Saluran Irigasi / Drainase", "FCODE": "60206"}, "geometry": {"type": "LineString", "coordinates": [[113.45759, -8.203645], [113.483829, -8.204681], [113.491306, -8.19468]]}}, {"type": "Feature", "properties": {"OBJECTID": 196, "NAMOBJ": "", "REMARK": "Saluran Irigasi / Drainase", "FCODE": "60206"}, "geometry": {"type": "LineString", "coordinates": [[113.308397, -8.301394], [113.318133, -8.307055], [113.335955, -8.321259], [113.339236, -8.322403]]}}, {"type": "Feature", "properties": {"OBJECTID": 208, "NAMOBJ": "", "REMARK": "Saluran Irigasi / Drainase", "FCODE": "60206"}, "geometry": {"type": "LineString", "coordinates": [[113.430023, -8.197264], [113.431195, -8.189452], [113.429794, -8.186231], [113.429715, -8.174942], [113.433836, -8.164026], [113.425211, -8.16028]]}}, {"type": "Feature", "properties": {"OBJECTID": 210, "NAMOBJ": "", "REMARK": "Saluran Irigasi / Drainase", "FCODE": "60206"}, "geometry": {"type": "LineString", "coordinates": [[113.883319, -7.930738], [113.893293, -7.920518], [113.893573, -7.914665], [113.896354, -7.910885], [113.905042, -7.904419]]}}, {"type": "Feature", "properties": {"OBJECTID": 219, "NAMOBJ": "", "REMARK": "Saluran Irigasi / Drainase", "FCODE": "60206"}, "geometry": {"type": "LineString", "coordinates": [[113.636303, -8.285914], [113.638845, -8.283521], [113.63795, -8.281212], [113.644046, -8.274374], [113.651426, -8.270396], [113.654288, -8.270685], [113.658546, -8.266323], [113.658532, -8.260429], [113.662205, -8.24486]]}}, {"type": "Feature", "properties": {"OBJECTID": 232, "NAMOBJ": "", "REMARK": "Saluran Irigasi / Drainase", "FCODE": "60206"}, "geometry": {"type": "LineString", "coordinates": [[113.58641, -8.213118], [113.581879, -8.21874], [113.578862, -8.226858], [113.573198, -8.232088], [113.569236, -8.231926]]}}, {"type": "Feature", "properties": {"OBJECTID": 242, "NAMOBJ": "", "REMARK": "Saluran Irigasi / Drainase", "FCODE": "60206"}, "geometry": {"type": "LineString", "coordinates": [[113.56401, -8.24367], [113.547286, -8.258863], [113.531694, -8.280806], [113.511124, -8.294442]]}}, {"type": "Feature", "properties": {"OBJECTID": 248, "NAMOBJ": "", "REMARK": "Saluran Irigasi / Drainase", "FCODE": "60206"}, "geometry": {"type": "LineString", "coordinates": [[113.476729, -8.180374], [113.4706, -8.185623], [113.465103, -8.19519]]}}, {"type": "Feature", "properties": {"OBJECTID": 253, "NAMOBJ": "", "REMARK": "Saluran Irigasi / Drainase", "FCODE": "60206"}, "geometry": {"type": "LineString", "coordinates": [[113.565586, -8.241716], [113.563893, -8.246294]]}}, {"type": "Feature", "properties": {"OBJECTID": 263, "NAMOBJ": "", "REMARK": "Saluran Irigasi / Drainase", "FCODE": "60206"}, "geometry": {"type": "LineString", "coordinates": [[113.39566, -8.239041], [113.396638, -8.236356], [113.402166, -8.237141], [113.404671, -8.231961], [113.405987, -8.231663], [113.407628, -8.226259], [113.412565, -8.226926]]}}, {"type": "Feature", "properties": {"OBJECTID": 264, "NAMOBJ": "", "REMARK": "Saluran Irigasi / Drainase", "FCODE": "60206"}, "geometry": {"type": "LineString", "coordinates": [[113.58689, -8.383794], [113.59199, -8.383672], [113.592316, -8.376325]]}}, {"type": "Feature", "properties": {"OBJECTID": 275, "NAMOBJ": "", "REMARK": "Saluran Irigasi / Drainase", "FCODE": "60206"}, "geometry": {"type": "LineString", "coordinates": [[113.706002, -8.387716], [113.694573, -8.393141], [113.685808, -8.394249]]}}, {"type": "Feature", "properties": {"OBJECTID": 277, "NAMOBJ": "", "REMARK": "Saluran Irigasi / Drainase", "FCODE": "60206"}, "geometry": {"type": "LineString", "coordinates": [[113.524297, -8.379203], [113.53338, -8.379517]]}}, {"type": "Feature", "properties": {"OBJECTID": 282, "NAMOBJ": "", "REMARK": "Saluran Irigasi / Drainase", "FCODE": "60206"}, "geometry": {"type": "LineString", "coordinates": [[113.308074, -8.172412], [113.310505, -8.170957], [113.31126, -8.167939], [113.309889, -8.16218], [113.311293, -8.154634], [113.308091, -8.151892], [113.306175, -8.147837], [113.309931, -8.135044], [113.308998, -8.122831], [113.302054, -8.118897], [113.299717, -8.11261], [113.277272, -8.110429]]}}, {"type": "Feature", "properties": {"OBJECTID": 284, "NAMOBJ": "", "REMARK": "Saluran Irigasi / Drainase", "FCODE": "60206"}, "geometry": {"type": "LineString", "coordinates": [[113.577492, -8.38607], [113.578647, -8.376562]]}}, {"type": "Feature", "properties": {"OBJECTID": 289, "NAMOBJ": "", "REMARK": "Saluran Irigasi / Drainase", "FCODE": "60206"}, "geometry": {"type": "LineString", "coordinates": [[113.483419, -8.214854], [113.478035, -8.211318]]}}, {"type": "Feature", "properties": {"OBJECTID": 295, "NAMOBJ": "SALURAN IRIGASI BONDOYUDO", "REMARK": "Saluran Irigasi / Drainase", "FCODE": "60206"}, "geometry": {"type": "LineString", "coordinates": [[113.367384, -8.121617], [113.360861, -8.119363]]}}, {"type": "Feature", "properties": {"OBJECTID": 321, "NAMOBJ": "KALI PLADINGAN", "REMARK": "Saluran Irigasi / Drainase", "FCODE": "60206"}, "geometry": {"type": "LineString", "coordinates": [[113.392226, -8.179058], [113.398243, -8.186983]]}}, {"type": "Feature", "properties": {"OBJECTID": 336, "NAMOBJ": "", "REMARK": "Saluran Irigasi / Drainase", "FCODE": "60206"}, "geometry": {"type": "LineString", "coordinates": [[113.413713, -8.382434], [113.413819, -8.382335]]}}, {"type": "Feature", "properties": {"OBJECTID": 341, "NAMOBJ": "", "REMARK": "Saluran Irigasi / Drainase", "FCODE": "60206"}, "geometry": {"type": "LineString", "coordinates": [[113.299592, -8.073665], [113.301788, -8.075578], [113.300151, -8.078474], [113.300369, -8.085217]]}}, {"type": "Feature", "properties": {"OBJECTID": 342, "NAMOBJ": "", "REMARK": "Saluran Irigasi / Drainase", "FCODE": "60206"}, "geometry": {"type": "LineString", "coordinates": [[113.384368, -8.189589], [113.375891, -8.203721]]}}, {"type": "Feature", "properties": {"OBJECTID": 346, "NAMOBJ": "", "REMARK": "Saluran Irigasi / Drainase", "FCODE": "60206"}, "geometry": {"type": "LineString", "coordinates": [[113.696496, -8.281898], [113.69655, -8.280666], [113.694143, -8.279807]]}}, {"type": "Feature", "properties": {"OBJECTID": 362, "NAMOBJ": "", "REMARK": "Saluran Irigasi / Drainase", "FCODE": "60206"}, "geometry": {"type": "LineString", "coordinates": [[113.534294, -8.372815], [113.539721, -8.374695], [113.557729, -8.361598], [113.558412, -8.357065], [113.57102, -8.358359]]}}, {"type": "Feature", "properties": {"OBJECTID": 375, "NAMOBJ": "", "REMARK": "Saluran Irigasi / Drainase", "FCODE": "60206"}, "geometry": {"type": "LineString", "coordinates": [[113.466074, -8.223601], [113.458059, -8.223942]]}}, {"type": "Feature", "properties": {"OBJECTID": 377, "NAMOBJ": "", "REMARK": "Saluran Irigasi / Drainase", "FCODE": "60206"}, "geometry": {"type": "LineString", "coordinates": [[113.338606, -8.121089], [113.338692, -8.124555]]}}, {"type": "Feature", "properties": {"OBJECTID": 388, "NAMOBJ": "", "REMARK": "Saluran Irigasi / Drainase", "FCODE": "60206"}, "geometry": {"type": "LineString", "coordinates": [[113.6697, -8.207581], [113.676398, -8.208288]]}}, {"type": "Feature", "properties": {"OBJECTID": 399, "NAMOBJ": "IRIGASI BABO", "REMARK": "Saluran Irigasi / Drainase", "FCODE": "60206"}, "geometry": {"type": "LineString", "coordinates": [[113.499215, -8.254751], [113.477929, -8.290583], [113.476265, -8.29722], [113.470897, -8.301843], [113.463346, -8.304209], [113.463017, -8.331774], [113.46171, -8.337359], [113.46381, -8.342721]]}}, {"type": "Feature", "properties": {"OBJECTID": 405, "NAMOBJ": "", "REMARK": "Saluran Irigasi / Drainase", "FCODE": "60206"}, "geometry": {"type": "LineString", "coordinates": [[113.44648, -8.201441], [113.45759, -8.203645]]}}, {"type": "Feature", "properties": {"OBJECTID": 444, "NAMOBJ": "", "REMARK": "Saluran Irigasi / Drainase", "FCODE": "60206"}, "geometry": {"type": "LineString", "coordinates": [[113.416536, -8.121864], [113.414137, -8.125142], [113.412667, -8.132984], [113.405719, -8.129664]]}}, {"type": "Feature", "properties": {"OBJECTID": 448, "NAMOBJ": "", "REMARK": "Saluran Irigasi / Drainase", "FCODE": "60206"}, "geometry": {"type": "LineString", "coordinates": [[113.310196, -8.131676], [113.31035, -8.131794]]}}, {"type": "Feature", "properties": {"OBJECTID": 449, "NAMOBJ": "", "REMARK": "Saluran Irigasi / Drainase", "FCODE": "60206"}, "geometry": {"type": "LineString", "coordinates": [[113.408988, -8.307151], [113.392761, -8.29473]]}}, {"type": "Feature", "properties": {"OBJECTID": 452, "NAMOBJ": "", "REMARK": "Saluran Irigasi / Drainase", "FCODE": "60206"}, "geometry": {"type": "LineString", "coordinates": [[113.584022, -8.402407], [113.583773, -8.402469]]}}, {"type": "Feature", "properties": {"OBJECTID": 457, "NAMOBJ": "", "REMARK": "Saluran Irigasi / Drainase", "FCODE": "60206"}, "geometry": {"type": "LineString", "coordinates": [[113.354836, -8.137598], [113.358011, -8.13969]]}}, {"type": "Feature", "properties": {"OBJECTID": 459, "NAMOBJ": "", "REMARK": "Saluran Irigasi / Drainase", "FCODE": "60206"}, "geometry": {"type": "LineString", "coordinates": [[113.479451, -8.204172], [113.480823, -8.204385], [113.474363, -8.220045]]}}, {"type": "Feature", "properties": {"OBJECTID": 460, "NAMOBJ": "", "REMARK": "Saluran Irigasi / Drainase", "FCODE": "60206"}, "geometry": {"type": "LineString", "coordinates": [[113.654598, -8.223692], [113.658076, -8.223838], [113.663383, -8.220977], [113.666196, -8.221578]]}}, {"type": "Feature", "properties": {"OBJECTID": 466, "NAMOBJ": "", "REMARK": "Saluran Irigasi / Drainase", "FCODE": "60206"}, "geometry": {"type": "LineString", "coordinates": [[113.409123, -8.375463], [113.409523, -8.376878]]}}, {"type": "Feature", "properties": {"OBJECTID": 486, "NAMOBJ": "", "REMARK": "Saluran Irigasi / Drainase", "FCODE": "60206"}, "geometry": {"type": "LineString", "coordinates": [[113.586062, -8.383298], [113.584803, -8.376566]]}}, {"type": "Feature", "properties": {"OBJECTID": 493, "NAMOBJ": "", "REMARK": "Saluran Irigasi / Drainase", "FCODE": "60206"}, "geometry": {"type": "LineString", "coordinates": [[113.581193, -8.232243], [113.566748, -8.242981]]}}, {"type": "Feature", "properties": {"OBJECTID": 498, "NAMOBJ": "", "REMARK": "Saluran Irigasi / Drainase", "FCODE": "60206"}, "geometry": {"type": "LineString", "coordinates": [[113.466203, -8.223434], [113.467555, -8.224635]]}}, {"type": "Feature", "properties": {"OBJECTID": 509, "NAMOBJ": "", "REMARK": "Saluran Irigasi / Drainase", "FCODE": "60206"}, "geometry": {"type": "LineString", "coordinates": [[113.463208, -8.31185], [113.452431, -8.308847], [113.444657, -8.309852], [113.443745, -8.311213], [113.443626, -8.3215], [113.447631, -8.335217], [113.44476, -8.340494], [113.445629, -8.347305]]}}, {"type": "Feature", "properties": {"OBJECTID": 522, "NAMOBJ": "", "REMARK": "Saluran Irigasi / Drainase", "FCODE": "60206"}, "geometry": {"type": "LineString", "coordinates": [[113.444202, -8.188361], [113.443978, -8.188417]]}}, {"type": "Feature", "properties": {"OBJECTID": 524, "NAMOBJ": "SALURAN IRIGASI BONDOYUDO", "REMARK": "Saluran Irigasi / Drainase", "FCODE": "60206"}, "geometry": {"type": "LineString", "coordinates": [[113.360861, -8.119363], [113.367444, -8.121445]]}}, {"type": "Feature", "properties": {"OBJECTID": 526, "NAMOBJ": "", "REMARK": "Saluran Irigasi / Drainase", "FCODE": "60206"}, "geometry": {"type": "LineString", "coordinates": [[113.57102, -8.358359], [113.577165, -8.358105]]}}, {"type": "Feature", "properties": {"OBJECTID": 544, "NAMOBJ": "", "REMARK": "Saluran Irigasi / Drainase", "FCODE": "60206"}, "geometry": {"type": "LineString", "coordinates": [[113.349536, -8.325275], [113.351207, -8.322798], [113.355992, -8.300418], [113.357673, -8.300957]]}}, {"type": "Feature", "properties": {"OBJECTID": 550, "NAMOBJ": "", "REMARK": "Saluran Irigasi / Drainase", "FCODE": "60206"}, "geometry": {"type": "LineString", "coordinates": [[113.397484, -8.186076], [113.392481, -8.183632], [113.390869, -8.184492]]}}, {"type": "Feature", "properties": {"OBJECTID": 553, "NAMOBJ": "", "REMARK": "Saluran Irigasi / Drainase", "FCODE": "60206"}, "geometry": {"type": "LineString", "coordinates": [[113.502335, -8.299456], [113.495869, -8.284616]]}}, {"type": "Feature", "properties": {"OBJECTID": 555, "NAMOBJ": "", "REMARK": "Saluran Irigasi / Drainase", "FCODE": "60206"}, "geometry": {"type": "LineString", "coordinates": [[113.40677, -8.38616], [113.403621, -8.386112]]}}, {"type": "Feature", "properties": {"OBJECTID": 556, "NAMOBJ": "", "REMARK": "Saluran Irigasi / Drainase", "FCODE": "60206"}, "geometry": {"type": "LineString", "coordinates": [[113.663701, -8.209029], [113.666408, -8.209435], [113.6697, -8.207581]]}}, {"type": "Feature", "properties": {"OBJECTID": 566, "NAMOBJ": "", "REMARK": "Saluran Irigasi / Drainase", "FCODE": "60206"}, "geometry": {"type": "LineString", "coordinates": [[113.497393, -8.337442], [113.501927, -8.329665], [113.504485, -8.318299], [113.513346, -8.297684], [113.506908, -8.288401], [113.49578, -8.28448], [113.482897, -8.283462]]}}, {"type": "Feature", "properties": {"OBJECTID": 583, "NAMOBJ": "", "REMARK": "Saluran Irigasi / Drainase", "FCODE": "60206"}, "geometry": {"type": "LineString", "coordinates": [[113.458059, -8.223942], [113.454398, -8.22889], [113.452778, -8.237166], [113.453256, -8.246804], [113.451604, -8.250567]]}}, {"type": "Feature", "properties": {"OBJECTID": 587, "NAMOBJ": "", "REMARK": "Saluran Irigasi / Drainase", "FCODE": "60206"}, "geometry": {"type": "LineString", "coordinates": [[113.394306, -8.384962], [113.391156, -8.388245]]}}, {"type": "Feature", "properties": {"OBJECTID": 588, "NAMOBJ": "", "REMARK": "Saluran Irigasi / Drainase", "FCODE": "60206"}, "geometry": {"type": "LineString", "coordinates": [[113.535475, -8.275091], [113.519367, -8.271287], [113.507157, -8.259912], [113.505548, -8.255655], [113.501328, -8.253702]]}}, {"type": "Feature", "properties": {"OBJECTID": 594, "NAMOBJ": "", "REMARK": "Saluran Irigasi / Drainase", "FCODE": "60206"}, "geometry": {"type": "LineString", "coordinates": [[113.378339, -8.164366], [113.385221, -8.163205], [113.394293, -8.156126], [113.403181, -8.151507], [113.412435, -8.133587]]}}, {"type": "Feature", "properties": {"OBJECTID": 612, "NAMOBJ": "", "REMARK": "Saluran Irigasi / Drainase", "FCODE": "60206"}, "geometry": {"type": "LineString", "coordinates": [[113.73805, -8.372612], [113.733348, -8.378682], [113.719387, -8.382129], [113.706002, -8.387716]]}}, {"type": "Feature", "properties": {"OBJECTID": 618, "NAMOBJ": "", "REMARK": "Saluran Irigasi / Drainase", "FCODE": "60206"}, "geometry": {"type": "LineString", "coordinates": [[113.66813, -8.306522], [113.666319, -8.306374]]}}, {"type": "Feature", "properties": {"OBJECTID": 621, "NAMOBJ": "", "REMARK": "Saluran Irigasi / Drainase", "FCODE": "60206"}, "geometry": {"type": "LineString", "coordinates": [[113.791201, -8.370481], [113.780629, -8.362552], [113.772138, -8.362554]]}}, {"type": "Feature", "properties": {"OBJECTID": 632, "NAMOBJ": "", "REMARK": "Saluran Irigasi / Drainase", "FCODE": "60206"}, "geometry": {"type": "LineString", "coordinates": [[113.829556, -7.957711], [113.829965, -7.933806], [113.828577, -7.928103]]}}, {"type": "Feature", "properties": {"OBJECTID": 638, "NAMOBJ": "", "REMARK": "Saluran Irigasi / Drainase", "FCODE": "60206"}, "geometry": {"type": "LineString", "coordinates": [[113.459149, -8.193172], [113.45759, -8.203645]]}}, {"type": "Feature", "properties": {"OBJECTID": 647, "NAMOBJ": "", "REMARK": "Saluran Irigasi / Drainase", "FCODE": "60206"}, "geometry": {"type": "LineString", "coordinates": [[113.368596, -8.157189], [113.372363, -8.159183], [113.36845, -8.164848]]}}, {"type": "Feature", "properties": {"OBJECTID": 648, "NAMOBJ": "SALURAN IRIGASI BONDOYUDO", "REMARK": "Saluran Irigasi / Drainase", "FCODE": "60206"}, "geometry": {"type": "LineString", "coordinates": [[113.360734, -8.119331], [113.357215, -8.120998], [113.352775, -8.120172], [113.347668, -8.126608], [113.341938, -8.128699], [113.326234, -8.128182], [113.324715, -8.126528], [113.324067, -8.117938], [113.299649, -8.112379], [113.276372, -8.110304], [113.270714, -8.103505]]}}, {"type": "Feature", "properties": {"OBJECTID": 653, "NAMOBJ": "", "REMARK": "Saluran Irigasi / Drainase", "FCODE": "60206"}, "geometry": {"type": "LineString", "coordinates": [[113.569503, -8.394429], [113.576636, -8.386022]]}}, {"type": "Feature", "properties": {"OBJECTID": 657, "NAMOBJ": "", "REMARK": "Saluran Irigasi / Drainase", "FCODE": "60206"}, "geometry": {"type": "LineString", "coordinates": [[113.394539, -8.388739], [113.392091, -8.387074]]}}, {"type": "Feature", "properties": {"OBJECTID": 661, "NAMOBJ": "", "REMARK": "Saluran Irigasi / Drainase", "FCODE": "60206"}, "geometry": {"type": "LineString", "coordinates": [[113.461701, -8.166798], [113.451414, -8.168815], [113.449874, -8.184546], [113.445894, -8.185169], [113.444878, -8.186554]]}}, {"type": "Feature", "properties": {"OBJECTID": 675, "NAMOBJ": "", "REMARK": "Saluran Irigasi / Drainase", "FCODE": "60206"}, "geometry": {"type": "LineString", "coordinates": [[113.41735, -8.151293], [113.409222, -8.140919]]}}, {"type": "Feature", "properties": {"OBJECTID": 678, "NAMOBJ": "", "REMARK": "Saluran Irigasi / Drainase", "FCODE": "60206"}, "geometry": {"type": "LineString", "coordinates": [[113.403868, -8.383937], [113.403271, -8.388753]]}}, {"type": "Feature", "properties": {"OBJECTID": 679, "NAMOBJ": "", "REMARK": "Saluran Irigasi / Drainase", "FCODE": "60206"}, "geometry": {"type": "LineString", "coordinates": [[113.722626, -8.204832], [113.715677, -8.202853]]}}, {"type": "Feature", "properties": {"OBJECTID": 680, "NAMOBJ": "", "REMARK": "Saluran Irigasi / Drainase", "FCODE": "60206"}, "geometry": {"type": "LineString", "coordinates": [[113.455682, -8.177467], [113.463848, -8.182076]]}}, {"type": "Feature", "properties": {"OBJECTID": 690, "NAMOBJ": "", "REMARK": "Saluran Irigasi / Drainase", "FCODE": "60206"}, "geometry": {"type": "LineString", "coordinates": [[113.428766, -8.148881], [113.423039, -8.162869], [113.419927, -8.1624]]}}, {"type": "Feature", "properties": {"OBJECTID": 707, "NAMOBJ": "", "REMARK": "Saluran Irigasi / Drainase", "FCODE": "60206"}, "geometry": {"type": "LineString", "coordinates": [[113.461809, -8.226807], [113.458542, -8.227822]]}}, {"type": "Feature", "properties": {"OBJECTID": 709, "NAMOBJ": "", "REMARK": "Saluran Irigasi / Drainase", "FCODE": "60206"}, "geometry": {"type": "LineString", "coordinates": [[113.389912, -8.137896], [113.377281, -8.133801], [113.377215, -8.13109], [113.372902, -8.127148], [113.373536, -8.125134]]}}, {"type": "Feature", "properties": {"OBJECTID": 711, "NAMOBJ": "", "REMARK": "Saluran Irigasi / Drainase", "FCODE": "60206"}, "geometry": {"type": "LineString", "coordinates": [[113.392183, -8.296067], [113.394234, -8.292328], [113.400515, -8.28697]]}}, {"type": "Feature", "properties": {"OBJECTID": 715, "NAMOBJ": "", "REMARK": "Saluran Irigasi / Drainase", "FCODE": "60206"}, "geometry": {"type": "LineString", "coordinates": [[113.626854, -8.264288], [113.633352, -8.262041]]}}, {"type": "Feature", "properties": {"OBJECTID": 720, "NAMOBJ": "", "REMARK": "Saluran Irigasi / Drainase", "FCODE": "60206"}, "geometry": {"type": "LineString", "coordinates": [[113.895853, -7.91714], [113.89333, -7.920367]]}}, {"type": "Feature", "properties": {"OBJECTID": 742, "NAMOBJ": "SALURAN IRIGASI BONDOYUDO", "REMARK": "Saluran Irigasi / Drainase", "FCODE": "60206"}, "geometry": {"type": "LineString", "coordinates": [[113.367624, -8.121697], [113.370216, -8.12433], [113.37577, -8.125917], [113.381841, -8.129725], [113.395667, -8.126564], [113.3985, -8.127123], [113.423499, -8.138745], [113.429817, -8.151101]]}}, {"type": "Feature", "properties": {"OBJECTID": 743, "NAMOBJ": "", "REMARK": "Saluran Irigasi / Drainase", "FCODE": "60206"}, "geometry": {"type": "LineString", "coordinates": [[113.430587, -8.194481], [113.442797, -8.191718], [113.444066, -8.188823], [113.436955, -8.185378], [113.429518, -8.17868]]}}, {"type": "Feature", "properties": {"OBJECTID": 744, "NAMOBJ": "", "REMARK": "Saluran Irigasi / Drainase", "FCODE": "60206"}, "geometry": {"type": "LineString", "coordinates": [[113.416135, -8.191202], [113.420747, -8.190151], [113.430811, -8.191292]]}}, {"type": "Feature", "properties": {"OBJECTID": 745, "NAMOBJ": "", "REMARK": "Saluran Irigasi / Drainase", "FCODE": "60206"}, "geometry": {"type": "LineString", "coordinates": [[113.33369, -8.133752], [113.332196, -8.138747], [113.332893, -8.141996], [113.330852, -8.145496], [113.330303, -8.164091], [113.333081, -8.167574], [113.338479, -8.169418], [113.339173, -8.171713]]}}, {"type": "Feature", "properties": {"OBJECTID": 748, "NAMOBJ": "", "REMARK": "Saluran Irigasi / Drainase", "FCODE": "60206"}, "geometry": {"type": "LineString", "coordinates": [[113.650677, -8.236445], [113.645171, -8.236213], [113.640624, -8.233212], [113.61759, -8.231149]]}}, {"type": "Feature", "properties": {"OBJECTID": 751, "NAMOBJ": "", "REMARK": "Saluran Irigasi / Drainase", "FCODE": "60206"}, "geometry": {"type": "LineString", "coordinates": [[113.374656, -8.231223], [113.367868, -8.237236], [113.358475, -8.240642], [113.34746, -8.239685], [113.34619, -8.243316], [113.339464, -8.250613], [113.333817, -8.278136], [113.34145, -8.282159], [113.342453, -8.29306]]}}, {"type": "Feature", "properties": {"OBJECTID": 755, "NAMOBJ": "", "REMARK": "Saluran Irigasi / Drainase", "FCODE": "60206"}, "geometry": {"type": "LineString", "coordinates": [[113.495869, -8.284616], [113.489844, -8.291168], [113.483272, -8.303022], [113.482599, -8.30626], [113.484588, -8.308025]]}}, {"type": "Feature", "properties": {"OBJECTID": 757, "NAMOBJ": "", "REMARK": "Saluran Irigasi / Drainase", "FCODE": "60206"}, "geometry": {"type": "LineString", "coordinates": [[113.462894, -8.37568], [113.436155, -8.376089], [113.429493, -8.375043], [113.418071, -8.379303], [113.41412, -8.382278], [113.413151, -8.380341]]}}, {"type": "Feature", "properties": {"OBJECTID": 760, "NAMOBJ": "", "REMARK": "Saluran Irigasi / Drainase", "FCODE": "60206"}, "geometry": {"type": "LineString", "coordinates": [[113.495942, -8.228208], [113.477914, -8.230268], [113.480522, -8.230422], [113.481037, -8.24023]]}}, {"type": "Feature", "properties": {"OBJECTID": 783, "NAMOBJ": "", "REMARK": "Saluran Irigasi / Drainase", "FCODE": "60206"}, "geometry": {"type": "LineString", "coordinates": [[113.318812, -8.217533], [113.321668, -8.186766], [113.308428, -8.183036], [113.309219, -8.175879], [113.308074, -8.172412]]}}, {"type": "Feature", "properties": {"OBJECTID": 784, "NAMOBJ": "", "REMARK": "Saluran Irigasi / Drainase", "FCODE": "60206"}, "geometry": {"type": "LineString", "coordinates": [[113.582427, -8.27615], [113.576941, -8.270111], [113.576235, -8.265914], [113.573953, -8.264797], [113.571399, -8.265597], [113.56978, -8.269047], [113.560435, -8.268454], [113.559677, -8.266238], [113.561463, -8.254906], [113.557427, -8.25292]]}}, {"type": "Feature", "properties": {"OBJECTID": 785, "NAMOBJ": "", "REMARK": "Saluran Irigasi / Drainase", "FCODE": "60206"}, "geometry": {"type": "LineString", "coordinates": [[113.393725, -8.389088], [113.392845, -8.38979]]}}, {"type": "Feature", "properties": {"OBJECTID": 792, "NAMOBJ": "", "REMARK": "Saluran Irigasi / Drainase", "FCODE": "60206"}, "geometry": {"type": "LineString", "coordinates": [[113.39763, -8.302189], [113.392649, -8.306276]]}}, {"type": "Feature", "properties": {"OBJECTID": 796, "NAMOBJ": "IRIGASI BONDOYUDO", "REMARK": "Saluran Irigasi / Drainase", "FCODE": "60206"}, "geometry": {"type": "LineString", "coordinates": [[113.430059, -8.151434], [113.432846, -8.156545], [113.440506, -8.160556], [113.437375, -8.17068], [113.442459, -8.178945], [113.445548, -8.196218]]}}, {"type": "Feature", "properties": {"OBJECTID": 804, "NAMOBJ": "", "REMARK": "Saluran Irigasi / Drainase", "FCODE": "60206"}, "geometry": {"type": "LineString", "coordinates": [[113.320543, -8.142423], [113.320729, -8.150274], [113.327641, -8.159988], [113.330914, -8.160516]]}}, {"type": "Feature", "properties": {"OBJECTID": 809, "NAMOBJ": "", "REMARK": "Saluran Irigasi / Drainase", "FCODE": "60206"}, "geometry": {"type": "LineString", "coordinates": [[113.905211, -7.904272], [113.911656, -7.898528]]}}, {"type": "Feature", "properties": {"OBJECTID": 811, "NAMOBJ": "", "REMARK": "Saluran Irigasi / Drainase", "FCODE": "60206"}, "geometry": {"type": "LineString", "coordinates": [[113.357673, -8.301], [113.360336, -8.307227], [113.384249, -8.329769]]}}, {"type": "Feature", "properties": {"OBJECTID": 812, "NAMOBJ": "", "REMARK": "Saluran Irigasi / Drainase", "FCODE": "60206"}, "geometry": {"type": "LineString", "coordinates": [[113.459303, -8.196879], [113.454991, -8.195587], [113.448759, -8.197015]]}}, {"type": "Feature", "properties": {"OBJECTID": 818, "NAMOBJ": "", "REMARK": "Saluran Irigasi / Drainase", "FCODE": "60206"}, "geometry": {"type": "LineString", "coordinates": [[113.71988, -8.200063], [113.717213, -8.200824], [113.711854, -8.206273], [113.707349, -8.204225], [113.702782, -8.204209]]}}, {"type": "Feature", "properties": {"OBJECTID": 819, "NAMOBJ": "", "REMARK": "Saluran Irigasi / Drainase", "FCODE": "60206"}, "geometry": {"type": "LineString", "coordinates": [[113.421113, -8.34151], [113.430026, -8.347763], [113.429603, -8.369089]]}}, {"type": "Feature", "properties": {"OBJECTID": 853, "NAMOBJ": "", "REMARK": "Saluran Irigasi / Drainase", "FCODE": "60206"}, "geometry": {"type": "LineString", "coordinates": [[113.308501, -8.114552], [113.308478, -8.114858]]}}, {"type": "Feature", "properties": {"OBJECTID": 867, "NAMOBJ": "", "REMARK": "Saluran Irigasi / Drainase", "FCODE": "60206"}, "geometry": {"type": "LineString", "coordinates": [[113.663377, -8.20301], [113.669576, -8.20395], [113.669799, -8.214224]]}}, {"type": "Feature", "properties": {"OBJECTID": 874, "NAMOBJ": "", "REMARK": "Saluran Irigasi / Drainase", "FCODE": "60206"}, "geometry": {"type": "LineString", "coordinates": [[113.472784, -8.267612], [113.473746, -8.261334], [113.475901, -8.259828]]}}, {"type": "Feature", "properties": {"OBJECTID": 881, "NAMOBJ": "", "REMARK": "Saluran Irigasi / Drainase", "FCODE": "60206"}, "geometry": {"type": "LineString", "coordinates": [[113.400247, -8.38712], [113.400348, -8.387218]]}}, {"type": "Feature", "properties": {"OBJECTID": 894, "NAMOBJ": "", "REMARK": "Saluran Irigasi / Drainase", "FCODE": "60206"}, "geometry": {"type": "LineString", "coordinates": [[113.683663, -8.269389], [113.681603, -8.267323], [113.678405, -8.269606], [113.676848, -8.266778], [113.674576, -8.266695], [113.671232, -8.272283], [113.66697, -8.273108]]}}, {"type": "Feature", "properties": {"OBJECTID": 899, "NAMOBJ": "", "REMARK": "Saluran Irigasi / Drainase", "FCODE": "60206"}, "geometry": {"type": "LineString", "coordinates": [[113.904446, -7.977206], [113.913896, -7.976532], [113.918862, -7.986272]]}}, {"type": "Feature", "properties": {"OBJECTID": 910, "NAMOBJ": "", "REMARK": "Saluran Irigasi / Drainase", "FCODE": "60206"}, "geometry": {"type": "LineString", "coordinates": [[113.430811, -8.191292], [113.431114, -8.191271]]}}, {"type": "Feature", "properties": {"OBJECTID": 912, "NAMOBJ": "", "REMARK": "Saluran Irigasi / Drainase", "FCODE": "60206"}, "geometry": {"type": "LineString", "coordinates": [[113.468632, -8.184498], [113.463288, -8.183558]]}}, {"type": "Feature", "properties": {"OBJECTID": 926, "NAMOBJ": "", "REMARK": "Saluran Irigasi / Drainase", "FCODE": "60206"}, "geometry": {"type": "LineString", "coordinates": [[113.39298, -8.204024], [113.391447, -8.200887]]}}, {"type": "Feature", "properties": {"OBJECTID": 936, "NAMOBJ": "", "REMARK": "Saluran Irigasi / Drainase", "FCODE": "60206"}, "geometry": {"type": "LineString", "coordinates": [[113.412398, -8.379005], [113.411774, -8.376963], [113.41466, -8.376651], [113.415072, -8.379594], [113.414005, -8.380051]]}}, {"type": "Feature", "properties": {"OBJECTID": 946, "NAMOBJ": "", "REMARK": "Saluran Irigasi / Drainase", "FCODE": "60206"}, "geometry": {"type": "LineString", "coordinates": [[113.308478, -8.114858], [113.299717, -8.11261]]}}, {"type": "Feature", "properties": {"OBJECTID": 952, "NAMOBJ": "", "REMARK": "Saluran Irigasi / Drainase", "FCODE": "60206"}, "geometry": {"type": "LineString", "coordinates": [[113.452545, -8.196122], [113.456931, -8.203553]]}}, {"type": "Feature", "properties": {"OBJECTID": 966, "NAMOBJ": "", "REMARK": "Saluran Irigasi / Drainase", "FCODE": "60206"}, "geometry": {"type": "LineString", "coordinates": [[113.307576, -8.141691], [113.300241, -8.138292], [113.29977, -8.128498], [113.295705, -8.127552], [113.29517, -8.126177], [113.290485, -8.125792], [113.288079, -8.131037], [113.279793, -8.131114], [113.279081, -8.132989], [113.277433, -8.131932]]}}, {"type": "Feature", "properties": {"OBJECTID": 967, "NAMOBJ": "", "REMARK": "Saluran Irigasi / Drainase", "FCODE": "60206"}, "geometry": {"type": "LineString", "coordinates": [[113.388564, -8.331412], [113.403201, -8.317552], [113.389029, -8.302844], [113.392183, -8.296067]]}}, {"type": "Feature", "properties": {"OBJECTID": 968, "NAMOBJ": "", "REMARK": "Saluran Irigasi / Drainase", "FCODE": "60206"}, "geometry": {"type": "LineString", "coordinates": [[113.308072, -8.172926], [113.306877, -8.182543]]}}, {"type": "Feature", "properties": {"OBJECTID": 976, "NAMOBJ": "", "REMARK": "Saluran Irigasi / Drainase", "FCODE": "60206"}, "geometry": {"type": "LineString", "coordinates": [[113.308119, -8.190601], [113.308428, -8.183036]]}}, {"type": "Feature", "properties": {"OBJECTID": 980, "NAMOBJ": "", "REMARK": "Saluran Irigasi / Drainase", "FCODE": "60206"}, "geometry": {"type": "LineString", "coordinates": [[113.530447, -8.213852], [113.523541, -8.21354], [113.517148, -8.209368], [113.51043, -8.209264], [113.508239, -8.206311], [113.503723, -8.204428]]}}, {"type": "Feature", "properties": {"OBJECTID": 985, "NAMOBJ": "", "REMARK": "Saluran Irigasi / Drainase", "FCODE": "60206"}, "geometry": {"type": "LineString", "coordinates": [[113.342346, -8.246496], [113.345505, -8.24798], [113.345757, -8.250512], [113.349345, -8.25207], [113.354273, -8.257147]]}}, {"type": "Feature", "properties": {"OBJECTID": 992, "NAMOBJ": "", "REMARK": "Saluran Irigasi / Drainase", "FCODE": "60206"}, "geometry": {"type": "LineString", "coordinates": [[113.442537, -8.218977], [113.452208, -8.222997], [113.454398, -8.22889]]}}, {"type": "Feature", "properties": {"OBJECTID": 994, "NAMOBJ": "", "REMARK": "Saluran Irigasi / Drainase", "FCODE": "60206"}, "geometry": {"type": "LineString", "coordinates": [[113.30333, -8.216014], [113.306309, -8.215318]]}}, {"type": "Feature", "properties": {"OBJECTID": 999, "NAMOBJ": "", "REMARK": "Saluran Irigasi / Drainase", "FCODE": "60206"}, "geometry": {"type": "LineString", "coordinates": [[113.451414, -8.168815], [113.447157, -8.168185], [113.446666, -8.169809]]}}, {"type": "Feature", "properties": {"OBJECTID": 1009, "NAMOBJ": "", "REMARK": "Saluran Irigasi / Drainase", "FCODE": "60206"}, "geometry": {"type": "LineString", "coordinates": [[113.300085, -8.067845], [113.300737, -8.071968], [113.297688, -8.077567], [113.29544, -8.078664], [113.291712, -8.092151], [113.288357, -8.094295], [113.289139, -8.096559], [113.291411, -8.097435], [113.288919, -8.105207], [113.291236, -8.108783], [113.289844, -8.111128], [113.296158, -8.110642], [113.299876, -8.111897]]}}, {"type": "Feature", "properties": {"OBJECTID": 1013, "NAMOBJ": "IRIGASI INDUK BEDADUNG", "REMARK": "Saluran Irigasi / Drainase", "FCODE": "60206"}, "geometry": {"type": "LineString", "coordinates": [[113.566823, -8.245501], [113.564896, -8.24894], [113.563185, -8.248199], [113.560659, -8.249334], [113.547618, -8.261887], [113.548703, -8.267059], [113.546404, -8.278271], [113.548692, -8.289852], [113.547493, -8.297979], [113.544408, -8.300206], [113.543517, -8.304356], [113.538938, -8.312066], [113.535056, -8.314442], [113.528622, -8.313447]]}}, {"type": "Feature", "properties": {"OBJECTID": 1034, "NAMOBJ": "", "REMARK": "Saluran Irigasi / Drainase", "FCODE": "60206"}, "geometry": {"type": "LineString", "coordinates": [[113.354043, -8.161038], [113.36289, -8.155105], [113.363236, -8.143437], [113.371026, -8.143717]]}}, {"type": "Feature", "properties": {"OBJECTID": 1038, "NAMOBJ": "", "REMARK": "Saluran Irigasi / Drainase", "FCODE": "60206"}, "geometry": {"type": "LineString", "coordinates": [[113.491306, -8.19468], [113.491375, -8.194569]]}}, {"type": "Feature", "properties": {"OBJECTID": 1050, "NAMOBJ": "", "REMARK": "Saluran Irigasi / Drainase", "FCODE": "60206"}, "geometry": {"type": "LineString", "coordinates": [[113.431114, -8.191271], [113.4436, -8.188426]]}}, {"type": "Feature", "properties": {"OBJECTID": 1062, "NAMOBJ": "", "REMARK": "Saluran Irigasi / Drainase", "FCODE": "60206"}, "geometry": {"type": "LineString", "coordinates": [[113.479451, -8.204172], [113.476922, -8.204955], [113.474147, -8.210639], [113.470616, -8.211907], [113.469125, -8.215149]]}}, {"type": "Feature", "properties": {"OBJECTID": 1064, "NAMOBJ": "", "REMARK": "Saluran Irigasi / Drainase", "FCODE": "60206"}, "geometry": {"type": "LineString", "coordinates": [[113.462429, -8.164004], [113.459469, -8.167494], [113.44089, -8.162486], [113.440292, -8.159841], [113.433621, -8.156903], [113.430059, -8.151434]]}}, {"type": "Feature", "properties": {"OBJECTID": 1066, "NAMOBJ": "", "REMARK": "Saluran Irigasi / Drainase", "FCODE": "60206"}, "geometry": {"type": "LineString", "coordinates": [[113.461701, -8.166798], [113.467658, -8.175102], [113.474182, -8.175656], [113.476073, -8.179563], [113.481364, -8.184859], [113.482121, -8.188325], [113.488794, -8.190361]]}}, {"type": "Feature", "properties": {"OBJECTID": 1073, "NAMOBJ": "", "REMARK": "Saluran Irigasi / Drainase", "FCODE": "60206"}, "geometry": {"type": "LineString", "coordinates": [[113.503723, -8.204428], [113.499945, -8.202884]]}}, {"type": "Feature", "properties": {"OBJECTID": 1078, "NAMOBJ": "", "REMARK": "Saluran Irigasi / Drainase", "FCODE": "60206"}, "geometry": {"type": "LineString", "coordinates": [[113.409523, -8.376878], [113.410004, -8.38093]]}}, {"type": "Feature", "properties": {"OBJECTID": 1081, "NAMOBJ": "", "REMARK": "Saluran Irigasi / Drainase", "FCODE": "60206"}, "geometry": {"type": "LineString", "coordinates": [[113.345095, -8.244289], [113.340509, -8.232619]]}}, {"type": "Feature", "properties": {"OBJECTID": 1082, "NAMOBJ": "", "REMARK": "Saluran Irigasi / Drainase", "FCODE": "60206"}, "geometry": {"type": "LineString", "coordinates": [[113.454166, -8.202939], [113.451073, -8.196558]]}}, {"type": "Feature", "properties": {"OBJECTID": 1089, "NAMOBJ": "", "REMARK": "Saluran Irigasi / Drainase", "FCODE": "60206"}, "geometry": {"type": "LineString", "coordinates": [[113.496796, -8.228199], [113.495942, -8.228208]]}}, {"type": "Feature", "properties": {"OBJECTID": 1096, "NAMOBJ": "", "REMARK": "Saluran Irigasi / Drainase", "FCODE": "60206"}, "geometry": {"type": "LineString", "coordinates": [[113.333817, -8.278136], [113.324159, -8.280745]]}}, {"type": "Feature", "properties": {"OBJECTID": 1099, "NAMOBJ": "", "REMARK": "Saluran Irigasi / Drainase", "FCODE": "60206"}, "geometry": {"type": "LineString", "coordinates": [[113.420197, -8.196147], [113.417491, -8.199342], [113.413727, -8.197011], [113.408775, -8.205462]]}}, {"type": "Feature", "properties": {"OBJECTID": 1100, "NAMOBJ": "", "REMARK": "Saluran Irigasi / Drainase", "FCODE": "60206"}, "geometry": {"type": "LineString", "coordinates": [[113.398243, -8.186983], [113.396571, -8.191672], [113.397776, -8.192292], [113.396771, -8.196319], [113.393769, -8.200474], [113.37771, -8.203211], [113.362202, -8.208093]]}}, {"type": "Feature", "properties": {"OBJECTID": 1109, "NAMOBJ": "", "REMARK": "Saluran Irigasi / Drainase", "FCODE": "60206"}, "geometry": {"type": "LineString", "coordinates": [[113.479532, -8.204064], [113.479451, -8.204172]]}}, {"type": "Feature", "properties": {"OBJECTID": 1116, "NAMOBJ": "", "REMARK": "Saluran Irigasi / Drainase", "FCODE": "60206"}, "geometry": {"type": "LineString", "coordinates": [[113.582691, -8.276409], [113.592645, -8.288861], [113.592555, -8.290567], [113.599105, -8.289545], [113.609201, -8.293269]]}}, {"type": "Feature", "properties": {"OBJECTID": 1124, "NAMOBJ": "", "REMARK": "Saluran Irigasi / Drainase", "FCODE": "60206"}, "geometry": {"type": "LineString", "coordinates": [[113.391576, -8.380855], [113.388487, -8.380941], [113.387474, -8.378792], [113.383545, -8.377245]]}}, {"type": "Feature", "properties": {"OBJECTID": 1127, "NAMOBJ": "", "REMARK": "Saluran Irigasi / Drainase", "FCODE": "60206"}, "geometry": {"type": "LineString", "coordinates": [[113.515545, -8.29878], [113.515309, -8.308808], [113.508132, -8.328403]]}}]}